{
"type": "FeatureCollection",
"name": "euroshop",
"crs": { "type": "name", "properties": { "name": "urn:ogc:def:crs:OGC:1.3:CRS84" } },
"features": [
{ "type": "Feature", "properties": { "id": 1, "latitude": 52.5189617, "longitude": 13.4087575, "filiale": 355, "address": "Rathausstraße5", "zip": 10178, "city": "Berlin" }, "geometry": { "type": "Point", "coordinates": [ 13.4087575, 52.5189617 ] } },
{ "type": "Feature", "properties": { "id": 2, "latitude": 52.5009271, "longitude": 13.3914649, "filiale": 20, "address": "Friedrichstraße211 - 212", "zip": 10969, "city": "Berlin" }, "geometry": { "type": "Point", "coordinates": [ 13.3914649, 52.5009271 ] } },
{ "type": "Feature", "properties": { "id": 3, "latitude": 52.5009271, "longitude": 13.3914649, "filiale": 318, "address": "Friedrichstraße246", "zip": 10969, "city": "Berlin" }, "geometry": { "type": "Point", "coordinates": [ 13.3914649, 52.5009271 ] } },
{ "type": "Feature", "properties": { "id": 4, "latitude": 52.5453154, "longitude": 13.4129199, "filiale": 27, "address": "Schönhauser Allee120", "zip": 10437, "city": "Berlin" }, "geometry": { "type": "Point", "coordinates": [ 13.4129199, 52.5453154 ] } },
{ "type": "Feature", "properties": { "id": 5, "latitude": 52.4997297, "longitude": 13.3628021, "filiale": 32, "address": "Potsdamer Straße115", "zip": 10783, "city": "Berlin" }, "geometry": { "type": "Point", "coordinates": [ 13.3628021, 52.4997297 ] } },
{ "type": "Feature", "properties": { "id": 6, "latitude": 52.5145861, "longitude": 13.4654547, "filiale": 39, "address": "Frankfurter Allee39", "zip": 10247, "city": "Berlin" }, "geometry": { "type": "Point", "coordinates": [ 13.4654547, 52.5145861 ] } },
{ "type": "Feature", "properties": { "id": 7, "latitude": 52.5265315, "longitude": 13.338283, "filiale": 28, "address": "Turmstraße45", "zip": 10551, "city": "Berlin" }, "geometry": { "type": "Point", "coordinates": [ 13.338283, 52.5265315 ] } },
{ "type": "Feature", "properties": { "id": 8, "latitude": 52.478943, "longitude": 13.4257221, "filiale": 38, "address": "Hermannstraße44", "zip": 12049, "city": "Berlin" }, "geometry": { "type": "Point", "coordinates": [ 13.4257221, 52.478943 ] } },
{ "type": "Feature", "properties": { "id": 9, "latitude": 52.4841061, "longitude": 13.3519075, "filiale": 41, "address": "Hauptstraße18", "zip": 10827, "city": "Berlin" }, "geometry": { "type": "Point", "coordinates": [ 13.3519075, 52.4841061 ] } },
{ "type": "Feature", "properties": { "id": 10, "latitude": 52.5702934, "longitude": 13.4081364, "filiale": 34, "address": "Breite Straße11 - 11a", "zip": 13187, "city": "Berlin" }, "geometry": { "type": "Point", "coordinates": [ 13.4081364, 52.5702934 ] } },
{ "type": "Feature", "properties": { "id": 11, "latitude": 52.5656843, "longitude": 13.3634282, "filiale": 14, "address": "Residenzstraße124", "zip": 13409, "city": "Berlin" }, "geometry": { "type": "Point", "coordinates": [ 13.3634282, 52.5656843 ] } },
{ "type": "Feature", "properties": { "id": 12, "latitude": 52.4675975, "longitude": 13.431181, "filiale": 25, "address": "Hermannstraße161", "zip": 12051, "city": "Berlin" }, "geometry": { "type": "Point", "coordinates": [ 13.431181, 52.4675975 ] } },
{ "type": "Feature", "properties": { "id": 13, "latitude": 52.4910225, "longitude": 13.3264735, "filiale": 30, "address": "Nassauische Straße38", "zip": 10717, "city": "Berlin" }, "geometry": { "type": "Point", "coordinates": [ 13.3264735, 52.4910225 ] } },
{ "type": "Feature", "properties": { "id": 14, "latitude": 52.462742, "longitude": 13.3853606, "filiale": 29, "address": "Tempelhofer Damm156", "zip": 12099, "city": "Berlin" }, "geometry": { "type": "Point", "coordinates": [ 13.3853606, 52.462742 ] } },
{ "type": "Feature", "properties": { "id": 15, "latitude": 52.5084378, "longitude": 13.3062243, "filiale": 35, "address": "Wilmersdorfer Straße134", "zip": 10627, "city": "Berlin" }, "geometry": { "type": "Point", "coordinates": [ 13.3062243, 52.5084378 ] } },
{ "type": "Feature", "properties": { "id": 16, "latitude": 52.470862, "longitude": 13.3345264, "filiale": 24, "address": "Rheinstraße2 - 3", "zip": 12159, "city": "Berlin" }, "geometry": { "type": "Point", "coordinates": [ 13.3345264, 52.470862 ] } },
{ "type": "Feature", "properties": { "id": 17, "latitude": 52.497568, "longitude": 13.2940975, "filiale": 15, "address": "Kurfürstendamm101", "zip": 10711, "city": "Berlin" }, "geometry": { "type": "Point", "coordinates": [ 13.2940975, 52.497568 ] } },
{ "type": "Feature", "properties": { "id": 18, "latitude": 52.446806, "longitude": 13.3854912, "filiale": 40, "address": "Mariendorfer Damm72", "zip": 12105, "city": "Berlin" }, "geometry": { "type": "Point", "coordinates": [ 13.3854912, 52.446806 ] } },
{ "type": "Feature", "properties": { "id": 19, "latitude": 52.4641672, "longitude": 13.4853515, "filiale": 37, "address": "Baumschulenstraße100", "zip": 12437, "city": "Berlin" }, "geometry": { "type": "Point", "coordinates": [ 13.4853515, 52.4641672 ] } },
{ "type": "Feature", "properties": { "id": 20, "latitude": 52.4497949, "longitude": 13.3483173, "filiale": 232, "address": "Steglitzer Damm13 - 17", "zip": 12169, "city": "Berlin" }, "geometry": { "type": "Point", "coordinates": [ 13.3483173, 52.4497949 ] } },
{ "type": "Feature", "properties": { "id": 21, "latitude": 52.5923129, "longitude": 13.3267681, "filiale": 31, "address": "Eichborndamm297", "zip": 13437, "city": "Berlin" }, "geometry": { "type": "Point", "coordinates": [ 13.3267681, 52.5923129 ] } },
{ "type": "Feature", "properties": { "id": 22, "latitude": 52.4408871, "longitude": 13.3424388, "filiale": 259, "address": "Leonorenstraße96 - 98", "zip": 12247, "city": "Berlin" }, "geometry": { "type": "Point", "coordinates": [ 13.3424388, 52.4408871 ] } },
{ "type": "Feature", "properties": { "id": 23, "latitude": 52.5837075, "longitude": 13.2889051, "filiale": 16, "address": "Berliner Straße9", "zip": 13507, "city": "Berlin" }, "geometry": { "type": "Point", "coordinates": [ 13.2889051, 52.5837075 ] } },
{ "type": "Feature", "properties": { "id": 24, "latitude": 52.4225376, "longitude": 13.3296183, "filiale": 36, "address": "Oberhofer Weg1", "zip": 12209, "city": "Berlin" }, "geometry": { "type": "Point", "coordinates": [ 13.3296183, 52.4225376 ] } },
{ "type": "Feature", "properties": { "id": 25, "latitude": 52.536267, "longitude": 13.2045217, "filiale": 17, "address": "Breite Straße33 - 34", "zip": 13597, "city": "Berlin" }, "geometry": { "type": "Point", "coordinates": [ 13.2045217, 52.536267 ] } },
{ "type": "Feature", "properties": { "id": 26, "latitude": 52.454802, "longitude": 13.5764436, "filiale": 357, "address": "Bahnhofstraße33-38", "zip": 12555, "city": "Berlin - Köpernick" }, "geometry": { "type": "Point", "coordinates": [ 13.5764436, 52.454802 ] } },
{ "type": "Feature", "properties": { "id": 27, "latitude": 52.5369054, "longitude": 13.2027898, "filiale": 26, "address": "Carl-Schurz-Straße23", "zip": 13597, "city": "Berlin" }, "geometry": { "type": "Point", "coordinates": [ 13.2027898, 52.5369054 ] } },
{ "type": "Feature", "properties": { "id": 28, "latitude": 52.384843, "longitude": 13.4041421, "filiale": 19, "address": "Goltzstraße37a", "zip": 12307, "city": "Berlin" }, "geometry": { "type": "Point", "coordinates": [ 13.4041421, 52.384843 ] } }
]
}
