{
"type": "FeatureCollection",
"name": "lidl",
"crs": { "type": "name", "properties": { "name": "urn:ogc:def:crs:OGC:1.3:CRS84" } },
"features": [
{ "type": "Feature", "properties": { "id": 1, "latitude": 52.50516, "longitude": 13.39282, "filiale": 4998, "address": "Charlottenstr. 2", "zip": 10969, "city": "Berlin-Friedrichshain-Kreuzberg" }, "geometry": { "type": "Point", "coordinates": [ 13.39282, 52.50516 ] } },
{ "type": "Feature", "properties": { "id": 2, "latitude": 52.50208, "longitude": 13.41447, "filiale": 1961, "address": "Oranienplatz 4", "zip": 10999, "city": "Berlin-Friedrichshain-Kreuzberg" }, "geometry": { "type": "Point", "coordinates": [ 13.41447, 52.50208 ] } },
{ "type": "Feature", "properties": { "id": 3, "latitude": 52.50614, "longitude": 13.41248, "filiale": 3111, "address": "Heinrich-Heine-Str. 30", "zip": 10179, "city": "Berlin-Mitte" }, "geometry": { "type": "Point", "coordinates": [ 13.41248, 52.50614 ] } },
{ "type": "Feature", "properties": { "id": 4, "latitude": 52.51078, "longitude": 13.39677, "filiale": 1542, "address": "Leipziger Str. 45B", "zip": 10117, "city": "Berlin-Mitte" }, "geometry": { "type": "Point", "coordinates": [ 13.39677, 52.51078 ] } },
{ "type": "Feature", "properties": { "id": 5, "latitude": 52.49683, "longitude": 13.41969, "filiale": 8355, "address": "Kottbusser Str. 16a", "zip": 10999, "city": "Berlin-Friedrichshain-Kreuzberg" }, "geometry": { "type": "Point", "coordinates": [ 13.41969, 52.49683 ] } },
{ "type": "Feature", "properties": { "id": 6, "latitude": 52.50353, "longitude": 13.38367, "filiale": 5891, "address": "Stresemannstr. 72-78", "zip": 10963, "city": "Berlin-Friedrichshain-Kreuzberg" }, "geometry": { "type": "Point", "coordinates": [ 13.38367, 52.50353 ] } },
{ "type": "Feature", "properties": { "id": 7, "latitude": 52.51485, "longitude": 13.41958, "filiale": 5304, "address": "Holzmarktstr. 3", "zip": 10179, "city": "Berlin-Mitte" }, "geometry": { "type": "Point", "coordinates": [ 13.41958, 52.51485 ] } },
{ "type": "Feature", "properties": { "id": 8, "latitude": 52.4923, "longitude": 13.43145, "filiale": 8342, "address": "Maybachufer 32-33", "zip": 12047, "city": "Berlin-Neukölln" }, "geometry": { "type": "Point", "coordinates": [ 13.43145, 52.4923 ] } },
{ "type": "Feature", "properties": { "id": 9, "latitude": 52.50123, "longitude": 13.43531, "filiale": 3483, "address": "Zeughofstr. 23 A", "zip": 10997, "city": "Berlin-Friedrichshain-Kreuzberg" }, "geometry": { "type": "Point", "coordinates": [ 13.43531, 52.50123 ] } },
{ "type": "Feature", "properties": { "id": 10, "latitude": 52.48934, "longitude": 13.37488, "filiale": 1934, "address": "Kreuzbergstr. 40", "zip": 10965, "city": "Berlin-Tempelhof-Schöneberg" }, "geometry": { "type": "Point", "coordinates": [ 13.37488, 52.48934 ] } },
{ "type": "Feature", "properties": { "id": 11, "latitude": 52.4852, "longitude": 13.37286, "filiale": 3678, "address": "Dudenstr. 90", "zip": 10965, "city": "Berlin-Friedrichshain-Kreuzberg" }, "geometry": { "type": "Point", "coordinates": [ 13.37286, 52.4852 ] } },
{ "type": "Feature", "properties": { "id": 12, "latitude": 52.52438, "longitude": 13.37943, "filiale": 8749, "address": "Luisenstr. 52", "zip": 10117, "city": "Berlin-Mitte" }, "geometry": { "type": "Point", "coordinates": [ 13.37943, 52.52438 ] } },
{ "type": "Feature", "properties": { "id": 13, "latitude": 52.49173, "longitude": 13.36103, "filiale": 5640, "address": "Potsdamer Str. 203", "zip": 10783, "city": "Berlin-Tempelhof-Schöneberg" }, "geometry": { "type": "Point", "coordinates": [ 13.36103, 52.49173 ] } },
{ "type": "Feature", "properties": { "id": 14, "latitude": 52.48178, "longitude": 13.43359, "filiale": 3207, "address": "Flughafenstr. 1", "zip": 12053, "city": "Berlin-Neukölln" }, "geometry": { "type": "Point", "coordinates": [ 13.43359, 52.48178 ] } },
{ "type": "Feature", "properties": { "id": 15, "latitude": 52.47692, "longitude": 13.4262, "filiale": 8377, "address": "Hermannstr. 55", "zip": 12049, "city": "Berlin-Neukölln" }, "geometry": { "type": "Point", "coordinates": [ 13.4262, 52.47692 ] } },
{ "type": "Feature", "properties": { "id": 16, "latitude": 52.52207, "longitude": 13.43542, "filiale": 8789, "address": "Friedenstr. 94 a", "zip": 10249, "city": "Berlin-Friedrichshain-Kreuzberg" }, "geometry": { "type": "Point", "coordinates": [ 13.43542, 52.52207 ] } },
{ "type": "Feature", "properties": { "id": 17, "latitude": 52.50473, "longitude": 13.44953, "filiale": 8743, "address": "Warschauer Platz 14", "zip": 10245, "city": "Berlin-Friedrichshain-Kreuzberg" }, "geometry": { "type": "Point", "coordinates": [ 13.44953, 52.50473 ] } },
{ "type": "Feature", "properties": { "id": 18, "latitude": 52.48102, "longitude": 13.43864, "filiale": 5080, "address": "Donaustr.96", "zip": 12043, "city": "Berlin-Neukölln" }, "geometry": { "type": "Point", "coordinates": [ 13.43864, 52.48102 ] } },
{ "type": "Feature", "properties": { "id": 19, "latitude": 52.50057, "longitude": 13.35066, "filiale": 8751, "address": "Kleiststr. 3 - 6", "zip": 10787, "city": "Berlin-Tempelhof-Schöneberg" }, "geometry": { "type": "Point", "coordinates": [ 13.35066, 52.50057 ] } },
{ "type": "Feature", "properties": { "id": 20, "latitude": 52.53455, "longitude": 13.40808, "filiale": 8762, "address": "Choriner Str. 64 u. 64 A", "zip": 10435, "city": "Berlin-Pankow" }, "geometry": { "type": "Point", "coordinates": [ 13.40808, 52.53455 ] } },
{ "type": "Feature", "properties": { "id": 21, "latitude": 52.46796, "longitude": 13.38521, "filiale": 3139, "address": "Tempelhofer Damm 130", "zip": 12099, "city": "Berlin-Tempelhof-Schöneberg" }, "geometry": { "type": "Point", "coordinates": [ 13.38521, 52.46796 ] } },
{ "type": "Feature", "properties": { "id": 22, "latitude": 52.53318, "longitude": 13.42989, "filiale": 8362, "address": "Greifswalder Str. 33a", "zip": 10405, "city": "Berlin-Pankow" }, "geometry": { "type": "Point", "coordinates": [ 13.42989, 52.53318 ] } },
{ "type": "Feature", "properties": { "id": 23, "latitude": 52.48323, "longitude": 13.35093, "filiale": 3501, "address": "Hauptstr. 122", "zip": 10827, "city": "Berlin-Tempelhof-Schöneberg" }, "geometry": { "type": "Point", "coordinates": [ 13.35093, 52.48323 ] } },
{ "type": "Feature", "properties": { "id": 24, "latitude": 52.53629, "longitude": 13.42294, "filiale": 5944, "address": "Prenzlauer Allee 44", "zip": 10405, "city": "Berlin-Pankow" }, "geometry": { "type": "Point", "coordinates": [ 13.42294, 52.53629 ] } },
{ "type": "Feature", "properties": { "id": 25, "latitude": 52.46478, "longitude": 13.41576, "filiale": 1046, "address": "Oberlandstr. 17", "zip": 12099, "city": "Berlin-Tempelhof-Schöneberg" }, "geometry": { "type": "Point", "coordinates": [ 13.41576, 52.46478 ] } },
{ "type": "Feature", "properties": { "id": 26, "latitude": 52.50027, "longitude": 13.46605, "filiale": 2036, "address": "Markgrafendamm 25c", "zip": 10245, "city": "Berlin-Friedrichshain-Kreuzberg" }, "geometry": { "type": "Point", "coordinates": [ 13.46605, 52.50027 ] } },
{ "type": "Feature", "properties": { "id": 27, "latitude": 52.48415, "longitude": 13.46107, "filiale": 1720, "address": "Kiefholzstr. 386", "zip": 12435, "city": "Berlin-Treptow-Köpenick" }, "geometry": { "type": "Point", "coordinates": [ 13.46107, 52.48415 ] } },
{ "type": "Feature", "properties": { "id": 28, "latitude": 52.47554, "longitude": 13.45203, "filiale": 8386, "address": "Sonnenallee 192", "zip": 12059, "city": "Berlin-Neukölln" }, "geometry": { "type": "Point", "coordinates": [ 13.45203, 52.47554 ] } },
{ "type": "Feature", "properties": { "id": 29, "latitude": 52.50746, "longitude": 13.46801, "filiale": 8769, "address": "Boxhagener Str. 76-78", "zip": 10245, "city": "Berlin-Friedrichshain-Kreuzberg" }, "geometry": { "type": "Point", "coordinates": [ 13.46801, 52.50746 ] } },
{ "type": "Feature", "properties": { "id": 30, "latitude": 52.46413, "longitude": 13.43524, "filiale": 8779, "address": "Glasower Str. 42", "zip": 12051, "city": "Berlin-Neukölln" }, "geometry": { "type": "Point", "coordinates": [ 13.43524, 52.46413 ] } },
{ "type": "Feature", "properties": { "id": 31, "latitude": 52.4782, "longitude": 13.34336, "filiale": 8757, "address": "Innsbrucker Platz (im U-Bahnhof)", "zip": 10827, "city": "Berlin-Tempelhof-Schöneberg" }, "geometry": { "type": "Point", "coordinates": [ 13.34336, 52.4782 ] } },
{ "type": "Feature", "properties": { "id": 32, "latitude": 52.53482, "longitude": 13.44607, "filiale": 1960, "address": "Kniprodestr. 26", "zip": 10407, "city": "Berlin-Pankow" }, "geometry": { "type": "Point", "coordinates": [ 13.44607, 52.53482 ] } },
{ "type": "Feature", "properties": { "id": 33, "latitude": 52.46818, "longitude": 13.44691, "filiale": 1947, "address": "Lahnstr. 61", "zip": 12055, "city": "Berlin-Neukölln" }, "geometry": { "type": "Point", "coordinates": [ 13.44691, 52.46818 ] } },
{ "type": "Feature", "properties": { "id": 34, "latitude": 52.5445, "longitude": 13.39141, "filiale": 8385, "address": "Brunnenstr. 87", "zip": 13355, "city": "Berlin-Mitte" }, "geometry": { "type": "Point", "coordinates": [ 13.39141, 52.5445 ] } },
{ "type": "Feature", "properties": { "id": 35, "latitude": 52.52041, "longitude": 13.46828, "filiale": 3589, "address": "Eldenaer Str. 34A", "zip": 10247, "city": "Berlin-Friedrichshain-Kreuzberg" }, "geometry": { "type": "Point", "coordinates": [ 13.46828, 52.52041 ] } },
{ "type": "Feature", "properties": { "id": 36, "latitude": 52.50089, "longitude": 13.32913, "filiale": 1974, "address": "Meinekestr. 22", "zip": 10719, "city": "Berlin-Charlottenburg-Wilmersdorf" }, "geometry": { "type": "Point", "coordinates": [ 13.32913, 52.50089 ] } },
{ "type": "Feature", "properties": { "id": 37, "latitude": 52.47016, "longitude": 13.34994, "filiale": 3064, "address": "Vorarlberger Damm 24\/26", "zip": 12157, "city": "Berlin-Tempelhof-Schöneberg" }, "geometry": { "type": "Point", "coordinates": [ 13.34994, 52.47016 ] } },
{ "type": "Feature", "properties": { "id": 38, "latitude": 52.45804, "longitude": 13.42452, "filiale": 8351, "address": "Tempelhofer Weg 14", "zip": 12347, "city": "Berlin-Neukölln" }, "geometry": { "type": "Point", "coordinates": [ 13.42452, 52.45804 ] } },
{ "type": "Feature", "properties": { "id": 39, "latitude": 52.4586, "longitude": 13.37585, "filiale": 8368, "address": "Manteuffelstr. 24-25", "zip": 12103, "city": "Berlin-Tempelhof-Schöneberg" }, "geometry": { "type": "Point", "coordinates": [ 13.37585, 52.4586 ] } },
{ "type": "Feature", "properties": { "id": 40, "latitude": 52.53644, "longitude": 13.35236, "filiale": 1763, "address": "Quitzowstr. 23", "zip": 10559, "city": "Berlin-Mitte" }, "geometry": { "type": "Point", "coordinates": [ 13.35236, 52.53644 ] } },
{ "type": "Feature", "properties": { "id": 41, "latitude": 52.45611, "longitude": 13.38455, "filiale": 5823, "address": "Tempelhofer Damm 215-219", "zip": 12099, "city": "Berlin-Tempelhof-Schöneberg" }, "geometry": { "type": "Point", "coordinates": [ 13.38455, 52.45611 ] } },
{ "type": "Feature", "properties": { "id": 42, "latitude": 52.54648, "longitude": 13.42844, "filiale": 3165, "address": "Prenzlauer Allee 93", "zip": 10409, "city": "Berlin-Pankow" }, "geometry": { "type": "Point", "coordinates": [ 13.42844, 52.54648 ] } },
{ "type": "Feature", "properties": { "id": 43, "latitude": 52.48666, "longitude": 13.32515, "filiale": 8325, "address": "Berliner Str. 26\/27", "zip": 10715, "city": "Berlin-Charlottenburg-Wilmersdorf" }, "geometry": { "type": "Point", "coordinates": [ 13.32515, 52.48666 ] } },
{ "type": "Feature", "properties": { "id": 44, "latitude": 52.50043, "longitude": 13.32115, "filiale": 6048, "address": "Knesebeckstraße 47\/48", "zip": 10719, "city": "Berlin-Charlottenburg" }, "geometry": { "type": "Point", "coordinates": [ 13.32115, 52.50043 ] } },
{ "type": "Feature", "properties": { "id": 45, "latitude": 52.55112, "longitude": 13.38341, "filiale": 8350, "address": "Badstr. 60", "zip": 13357, "city": "Berlin-Mitte" }, "geometry": { "type": "Point", "coordinates": [ 13.38341, 52.55112 ] } },
{ "type": "Feature", "properties": { "id": 46, "latitude": 52.52239, "longitude": 13.47946, "filiale": 4986, "address": "Möllendorffstr. 75a", "zip": 10367, "city": "Berlin-Lichtenberg" }, "geometry": { "type": "Point", "coordinates": [ 13.47946, 52.52239 ] } },
{ "type": "Feature", "properties": { "id": 47, "latitude": 52.54925, "longitude": 13.36902, "filiale": 3398, "address": "Reinickendorfer Str. 41\/Wiesenstr.", "zip": 13347, "city": "Berlin-Mitte" }, "geometry": { "type": "Point", "coordinates": [ 13.36902, 52.54925 ] } },
{ "type": "Feature", "properties": { "id": 48, "latitude": 52.55279, "longitude": 13.42146, "filiale": 8343, "address": "Wisbyer Str. 16", "zip": 10439, "city": "Berlin-Pankow" }, "geometry": { "type": "Point", "coordinates": [ 13.42146, 52.55279 ] } },
{ "type": "Feature", "properties": { "id": 49, "latitude": 52.55434, "longitude": 13.4007, "filiale": 3654, "address": "Bornholmer Str. 65", "zip": 10439, "city": "Berlin-Pankow" }, "geometry": { "type": "Point", "coordinates": [ 13.4007, 52.55434 ] } },
{ "type": "Feature", "properties": { "id": 50, "latitude": 52.55015, "longitude": 13.44154, "filiale": 8373, "address": "Roelckestr. 172", "zip": 13086, "city": "Berlin-Pankow" }, "geometry": { "type": "Point", "coordinates": [ 13.44154, 52.55015 ] } },
{ "type": "Feature", "properties": { "id": 51, "latitude": 52.521, "longitude": 13.48604, "filiale": 8776, "address": "Ruschestr. 64-70", "zip": 10365, "city": "Berlin-Lichtenberg" }, "geometry": { "type": "Point", "coordinates": [ 13.48604, 52.521 ] } },
{ "type": "Feature", "properties": { "id": 52, "latitude": 52.55499, "longitude": 13.38332, "filiale": 3113, "address": "Prinzenallee 75-77", "zip": 13357, "city": "Berlin-Mitte" }, "geometry": { "type": "Point", "coordinates": [ 13.38332, 52.55499 ] } },
{ "type": "Feature", "properties": { "id": 53, "latitude": 52.51146, "longitude": 13.49175, "filiale": 1722, "address": "Frankfurter Allee 212", "zip": 10365, "city": "Berlin-Lichtenberg" }, "geometry": { "type": "Point", "coordinates": [ 13.49175, 52.51146 ] } },
{ "type": "Feature", "properties": { "id": 54, "latitude": 52.4528, "longitude": 13.45315, "filiale": 3935, "address": "Späthstr. 162", "zip": 12359, "city": "Berlin-Neukölln" }, "geometry": { "type": "Point", "coordinates": [ 13.45315, 52.4528 ] } },
{ "type": "Feature", "properties": { "id": 55, "latitude": 52.46445, "longitude": 13.32761, "filiale": 5122, "address": "Schloßstr. 1", "zip": 12163, "city": "Berlin-Steglitz-Zehlendorf" }, "geometry": { "type": "Point", "coordinates": [ 13.32761, 52.46445 ] } },
{ "type": "Feature", "properties": { "id": 56, "latitude": 52.55611, "longitude": 13.43731, "filiale": 5092, "address": "Pistoriusstr. 66+67", "zip": 13086, "city": "Berlin-Pankow" }, "geometry": { "type": "Point", "coordinates": [ 13.43731, 52.55611 ] } },
{ "type": "Feature", "properties": { "id": 57, "latitude": 52.50973, "longitude": 13.30583, "filiale": 8364, "address": "Wilmersdorfer Str. 126", "zip": 10627, "city": "Berlin-Charlottenburg-Wilmersdorf" }, "geometry": { "type": "Point", "coordinates": [ 13.30583, 52.50973 ] } },
{ "type": "Feature", "properties": { "id": 58, "latitude": 52.44919, "longitude": 13.35409, "filiale": 2004, "address": "Steglitzer Damm 95", "zip": 12169, "city": "Berlin-Steglitz-Zehlendorf" }, "geometry": { "type": "Point", "coordinates": [ 13.35409, 52.44919 ] } },
{ "type": "Feature", "properties": { "id": 59, "latitude": 52.55203, "longitude": 13.34967, "filiale": 5044, "address": "Müllerstr. 48\/48a", "zip": 13349, "city": "Berlin-Mitte" }, "geometry": { "type": "Point", "coordinates": [ 13.34967, 52.55203 ] } },
{ "type": "Feature", "properties": { "id": 60, "latitude": 52.54653, "longitude": 13.46882, "filiale": 3221, "address": "Indira-Ghandi-Str. 101", "zip": 13053, "city": "Berlin-Lichtenberg" }, "geometry": { "type": "Point", "coordinates": [ 13.46882, 52.54653 ] } },
{ "type": "Feature", "properties": { "id": 61, "latitude": 52.45826, "longitude": 13.33037, "filiale": 8375, "address": "Bergstr. 86", "zip": 12169, "city": "Berlin-Steglitz-Zehlendorf" }, "geometry": { "type": "Point", "coordinates": [ 13.33037, 52.45826 ] } },
{ "type": "Feature", "properties": { "id": 62, "latitude": 52.5635, "longitude": 13.4125, "filiale": 2041, "address": "Berliner Str. 27-28", "zip": 13189, "city": "Berlin-Pankow" }, "geometry": { "type": "Point", "coordinates": [ 13.4125, 52.5635 ] } },
{ "type": "Feature", "properties": { "id": 63, "latitude": 52.50265, "longitude": 13.29787, "filiale": 1948, "address": "Gervinusstr. 30", "zip": 10629, "city": "Berlin-Charlottenburg-Wilmersdorf" }, "geometry": { "type": "Point", "coordinates": [ 13.29787, 52.50265 ] } },
{ "type": "Feature", "properties": { "id": 64, "latitude": 52.52761, "longitude": 13.30677, "filiale": 1999, "address": "Lise-Meitner-Str. 6", "zip": 10589, "city": "Berlin-Charlottenburg-Wilmersdorf" }, "geometry": { "type": "Point", "coordinates": [ 13.30677, 52.52761 ] } },
{ "type": "Feature", "properties": { "id": 65, "latitude": 52.46475, "longitude": 13.48816, "filiale": 8381, "address": "Kiefholzstr. 189", "zip": 12437, "city": "Berlin-Treptow-Köpenick" }, "geometry": { "type": "Point", "coordinates": [ 13.48816, 52.46475 ] } },
{ "type": "Feature", "properties": { "id": 66, "latitude": 52.50877, "longitude": 13.5066, "filiale": 1231, "address": "Einbecker Str. 57", "zip": 10315, "city": "Berlin-Lichtenberg" }, "geometry": { "type": "Point", "coordinates": [ 13.5066, 52.50877 ] } },
{ "type": "Feature", "properties": { "id": 67, "latitude": 52.4916, "longitude": 13.29824, "filiale": 5906, "address": "Seesener Str. 10-13", "zip": 10709, "city": "Berlin-Charlottenburg-Wilmersdorf" }, "geometry": { "type": "Point", "coordinates": [ 13.29824, 52.4916 ] } },
{ "type": "Feature", "properties": { "id": 68, "latitude": 52.43874, "longitude": 13.37971, "filiale": 3445, "address": "Großbeerenstr. 2", "zip": 12107, "city": "Berlin-Tempelhof-Schöneberg" }, "geometry": { "type": "Point", "coordinates": [ 13.37971, 52.43874 ] } },
{ "type": "Feature", "properties": { "id": 69, "latitude": 52.56171, "longitude": 13.36487, "filiale": 1269, "address": "Markstr. 40-42", "zip": 13409, "city": "Berlin-Reinickendorf" }, "geometry": { "type": "Point", "coordinates": [ 13.36487, 52.56171 ] } },
{ "type": "Feature", "properties": { "id": 70, "latitude": 52.43941, "longitude": 13.43723, "filiale": 8775, "address": "Gutschmidtstr. 101", "zip": 12359, "city": "Berlin-Neukölln" }, "geometry": { "type": "Point", "coordinates": [ 13.43723, 52.43941 ] } },
{ "type": "Feature", "properties": { "id": 71, "latitude": 52.56545, "longitude": 13.37836, "filiale": 5176, "address": "Provinzstr. 30", "zip": 13409, "city": "Berlin-Mitte" }, "geometry": { "type": "Point", "coordinates": [ 13.37836, 52.56545 ] } },
{ "type": "Feature", "properties": { "id": 72, "latitude": 52.45872, "longitude": 13.3188, "filiale": 8339, "address": "Rothenburgstr. 38a", "zip": 12163, "city": "Berlin-Steglitz-Zehlendorf" }, "geometry": { "type": "Point", "coordinates": [ 13.3188, 52.45872 ] } },
{ "type": "Feature", "properties": { "id": 73, "latitude": 52.44091, "longitude": 13.35263, "filiale": 1937, "address": "Kaiser-Wilhelm-Str. 127", "zip": 12247, "city": "Berlin-Steglitz-Zehlendorf" }, "geometry": { "type": "Point", "coordinates": [ 13.35263, 52.44091 ] } },
{ "type": "Feature", "properties": { "id": 74, "latitude": 52.51541, "longitude": 13.28752, "filiale": 8394, "address": "Sophie-Charlotten-Str. 31", "zip": 14059, "city": "Berlin-Charlottenburg-Wilmersdorf" }, "geometry": { "type": "Point", "coordinates": [ 13.28752, 52.51541 ] } },
{ "type": "Feature", "properties": { "id": 75, "latitude": 52.54317, "longitude": 13.49722, "filiale": 3405, "address": "Große-Leege-Str. 95", "zip": 13055, "city": "Berlin-Lichtenberg" }, "geometry": { "type": "Point", "coordinates": [ 13.49722, 52.54317 ] } },
{ "type": "Feature", "properties": { "id": 76, "latitude": 52.44466, "longitude": 13.33111, "filiale": 1776, "address": "Birkbuschstr. 54", "zip": 12167, "city": "Berlin-Steglitz-Zehlendorf" }, "geometry": { "type": "Point", "coordinates": [ 13.33111, 52.44466 ] } },
{ "type": "Feature", "properties": { "id": 77, "latitude": 52.5739, "longitude": 13.39902, "filiale": 8356, "address": "Grabbeallee 27\/29", "zip": 13156, "city": "Berlin-Pankow" }, "geometry": { "type": "Point", "coordinates": [ 13.39902, 52.5739 ] } },
{ "type": "Feature", "properties": { "id": 78, "latitude": 52.49478, "longitude": 13.52319, "filiale": 8295, "address": "Ontarioseestr. 17", "zip": 10319, "city": "Berlin-Lichtenberg" }, "geometry": { "type": "Point", "coordinates": [ 13.52319, 52.49478 ] } },
{ "type": "Feature", "properties": { "id": 79, "latitude": 52.57168, "longitude": 13.44356, "filiale": 5281, "address": "Blankenburger Str. 17a", "zip": 13089, "city": "Berlin-Pankow" }, "geometry": { "type": "Point", "coordinates": [ 13.44356, 52.57168 ] } },
{ "type": "Feature", "properties": { "id": 80, "latitude": 52.56454, "longitude": 13.47031, "filiale": 8384, "address": "Berliner Allee 300", "zip": 13088, "city": "Berlin-Pankow" }, "geometry": { "type": "Point", "coordinates": [ 13.47031, 52.56454 ] } },
{ "type": "Feature", "properties": { "id": 81, "latitude": 52.51981, "longitude": 13.28035, "filiale": 8387, "address": "Fürstenbrunner Weg 14-18", "zip": 14059, "city": "Berlin-Charlottenburg-Wilmersdorf" }, "geometry": { "type": "Point", "coordinates": [ 13.28035, 52.51981 ] } },
{ "type": "Feature", "properties": { "id": 82, "latitude": 52.42647, "longitude": 13.43505, "filiale": 8376, "address": "Buckower Damm 194", "zip": 12349, "city": "Berlin-Neukölln" }, "geometry": { "type": "Point", "coordinates": [ 13.43505, 52.42647 ] } },
{ "type": "Feature", "properties": { "id": 83, "latitude": 52.56496, "longitude": 13.32902, "filiale": 3124, "address": "Ollenhauer-Str. 7", "zip": 13403, "city": "Berlin-Reinickendorf" }, "geometry": { "type": "Point", "coordinates": [ 13.32902, 52.56496 ] } },
{ "type": "Feature", "properties": { "id": 84, "latitude": 52.44175, "longitude": 13.31548, "filiale": 5833, "address": "Hindenburgdamm 94", "zip": 12203, "city": "Berlin-Steglitz-Zehlendorf" }, "geometry": { "type": "Point", "coordinates": [ 13.31548, 52.44175 ] } },
{ "type": "Feature", "properties": { "id": 85, "latitude": 52.4617, "longitude": 13.51705, "filiale": 8792, "address": "Wilhelminenhofstr. 83-85", "zip": 12459, "city": "Berlin-Treptow-Köpenick" }, "geometry": { "type": "Point", "coordinates": [ 13.51705, 52.4617 ] } },
{ "type": "Feature", "properties": { "id": 86, "latitude": 52.41965, "longitude": 13.39016, "filiale": 8357, "address": "Säntisstr. 49", "zip": 12277, "city": "Berlin-Tempelhof-Schöneberg" }, "geometry": { "type": "Point", "coordinates": [ 13.39016, 52.41965 ] } },
{ "type": "Feature", "properties": { "id": 87, "latitude": 52.43011, "longitude": 13.33357, "filiale": 3364, "address": "Kaiser-Wilhelm-Str. 6", "zip": 12247, "city": "Berlin-Steglitz-Zehlendorf" }, "geometry": { "type": "Point", "coordinates": [ 13.33357, 52.43011 ] } },
{ "type": "Feature", "properties": { "id": 88, "latitude": 52.52388, "longitude": 13.53363, "filiale": 8730, "address": "Marzahner Chaussee 189", "zip": 12681, "city": "Berlin-Marzahn-Hellersdorf" }, "geometry": { "type": "Point", "coordinates": [ 13.53363, 52.52388 ] } },
{ "type": "Feature", "properties": { "id": 89, "latitude": 52.5512, "longitude": 13.5141, "filiale": 8370, "address": "Gehrenseestr. 11", "zip": 13053, "city": "Berlin-Lichtenberg" }, "geometry": { "type": "Point", "coordinates": [ 13.5141, 52.5512 ] } },
{ "type": "Feature", "properties": { "id": 90, "latitude": 52.42598, "longitude": 13.46487, "filiale": 5225, "address": "Lipschitzallee 50", "zip": 12353, "city": "Berlin-Neukölln" }, "geometry": { "type": "Point", "coordinates": [ 13.46487, 52.42598 ] } },
{ "type": "Feature", "properties": { "id": 91, "latitude": 52.56146, "longitude": 13.50139, "filiale": 1795, "address": "Malchower Weg 134", "zip": 13053, "city": "Berlin-Lichtenberg" }, "geometry": { "type": "Point", "coordinates": [ 13.50139, 52.56146 ] } },
{ "type": "Feature", "properties": { "id": 92, "latitude": 52.53144, "longitude": 13.53694, "filiale": 1992, "address": "Märkische Allee 140A", "zip": 12681, "city": "Berlin-Marzahn-Hellersdorf" }, "geometry": { "type": "Point", "coordinates": [ 13.53694, 52.53144 ] } },
{ "type": "Feature", "properties": { "id": 93, "latitude": 52.41717, "longitude": 13.361, "filiale": 8383, "address": "Malteserstr. 162", "zip": 12277, "city": "Berlin-Tempelhof-Schöneberg" }, "geometry": { "type": "Point", "coordinates": [ 13.361, 52.41717 ] } },
{ "type": "Feature", "properties": { "id": 94, "latitude": 52.57588, "longitude": 13.32536, "filiale": 3401, "address": "Waldstr. 14-21", "zip": 13403, "city": "Berlin-Reinickendorf" }, "geometry": { "type": "Point", "coordinates": [ 13.32536, 52.57588 ] } },
{ "type": "Feature", "properties": { "id": 95, "latitude": 52.4145, "longitude": 13.42559, "filiale": 8788, "address": "Warmensteinacher Str. 57", "zip": 12349, "city": "Berlin-Neukölln" }, "geometry": { "type": "Point", "coordinates": [ 13.42559, 52.4145 ] } },
{ "type": "Feature", "properties": { "id": 96, "latitude": 52.4272, "longitude": 13.48108, "filiale": 8344, "address": "Neuköllner Str. 236-238", "zip": 12357, "city": "Berlin-Neukölln" }, "geometry": { "type": "Point", "coordinates": [ 13.48108, 52.4272 ] } },
{ "type": "Feature", "properties": { "id": 97, "latitude": 52.5917, "longitude": 13.40247, "filiale": 8347, "address": "Dietzgenstr. 102", "zip": 13158, "city": "Berlin-Pankow" }, "geometry": { "type": "Point", "coordinates": [ 13.40247, 52.5917 ] } },
{ "type": "Feature", "properties": { "id": 98, "latitude": 52.44073, "longitude": 13.28997, "filiale": 1534, "address": "Curtiusstr. 36", "zip": 12205, "city": "Berlin-Steglitz-Zehlendorf" }, "geometry": { "type": "Point", "coordinates": [ 13.28997, 52.44073 ] } },
{ "type": "Feature", "properties": { "id": 99, "latitude": 52.58622, "longitude": 13.3415, "filiale": 1508, "address": "Roedernallee 45-50", "zip": 13407, "city": "Berlin-Reinickendorf" }, "geometry": { "type": "Point", "coordinates": [ 13.3415, 52.58622 ] } },
{ "type": "Feature", "properties": { "id": 100, "latitude": 52.59385, "longitude": 13.43218, "filiale": 8399, "address": "Pasewalker Str. 77", "zip": 13127, "city": "Berlin-Pankow" }, "geometry": { "type": "Point", "coordinates": [ 13.43218, 52.59385 ] } },
{ "type": "Feature", "properties": { "id": 101, "latitude": 52.53236, "longitude": 13.54964, "filiale": 3998, "address": "Allee der Kosmonauten 141 A", "zip": 12683, "city": "Berlin-Marzahn-Hellersdorf" }, "geometry": { "type": "Point", "coordinates": [ 13.54964, 52.53236 ] } },
{ "type": "Feature", "properties": { "id": 102, "latitude": 52.45739, "longitude": 13.26371, "filiale": 3033, "address": "Hüttenweg 50", "zip": 14195, "city": "Berlin-Steglitz-Zehlendorf" }, "geometry": { "type": "Point", "coordinates": [ 13.26371, 52.45739 ] } },
{ "type": "Feature", "properties": { "id": 103, "latitude": 52.40859, "longitude": 13.35879, "filiale": 3897, "address": "Marienfelder Allee 202", "zip": 12279, "city": "Berlin-Tempelhof-Schöneberg" }, "geometry": { "type": "Point", "coordinates": [ 13.35879, 52.40859 ] } },
{ "type": "Feature", "properties": { "id": 104, "latitude": 52.58666, "longitude": 13.31642, "filiale": 3981, "address": "Holzhauser Str. 168", "zip": 13509, "city": "Berlin-Reinickendorf" }, "geometry": { "type": "Point", "coordinates": [ 13.31642, 52.58666 ] } },
{ "type": "Feature", "properties": { "id": 105, "latitude": 52.52641, "longitude": 13.24058, "filiale": 1367, "address": "Charlottenburger Chaussee 18", "zip": 13597, "city": "Berlin-Spandau" }, "geometry": { "type": "Point", "coordinates": [ 13.24058, 52.52641 ] } },
{ "type": "Feature", "properties": { "id": 106, "latitude": 52.42108, "longitude": 13.30005, "filiale": 3882, "address": "Wismarer Str. 35", "zip": 12207, "city": "Berlin-Steglitz-Zehlendorf" }, "geometry": { "type": "Point", "coordinates": [ 13.30005, 52.42108 ] } },
{ "type": "Feature", "properties": { "id": 107, "latitude": 52.44187, "longitude": 13.26543, "filiale": 3688, "address": "Clayallee 278", "zip": 14169, "city": "Berlin-Steglitz-Zehlendorf" }, "geometry": { "type": "Point", "coordinates": [ 13.26543, 52.44187 ] } },
{ "type": "Feature", "properties": { "id": 108, "latitude": 52.39782, "longitude": 13.39189, "filiale": 1244, "address": "Nuthestr. 5", "zip": 12307, "city": "Berlin-Tempelhof-Schöneberg" }, "geometry": { "type": "Point", "coordinates": [ 13.39189, 52.39782 ] } },
{ "type": "Feature", "properties": { "id": 109, "latitude": 52.60303, "longitude": 13.36762, "filiale": 5973, "address": "Quickborner Straße 66-70", "zip": 13439, "city": "Berlin-Reinickendorf" }, "geometry": { "type": "Point", "coordinates": [ 13.36762, 52.60303 ] } },
{ "type": "Feature", "properties": { "id": 110, "latitude": 52.48964, "longitude": 13.57542, "filiale": 1861, "address": "Chemnitzer Str. 174", "zip": 12621, "city": "Berlin-Marzahn-Hellersdorf" }, "geometry": { "type": "Point", "coordinates": [ 13.57542, 52.48964 ] } },
{ "type": "Feature", "properties": { "id": 111, "latitude": 52.52886, "longitude": 13.57072, "filiale": 1368, "address": "Cecilienstr. 161", "zip": 12683, "city": "Berlin-Marzahn-Hellersdorf" }, "geometry": { "type": "Point", "coordinates": [ 13.57072, 52.52886 ] } },
{ "type": "Feature", "properties": { "id": 112, "latitude": 52.55653, "longitude": 13.55349, "filiale": 3800, "address": "Märkische Allee 276", "zip": 12679, "city": "Berlin-Marzahn-Hellersdorf" }, "geometry": { "type": "Point", "coordinates": [ 13.55349, 52.55653 ] } },
{ "type": "Feature", "properties": { "id": 113, "latitude": 52.42472, "longitude": 13.52711, "filiale": 1369, "address": "Semmelweisstr. 106", "zip": 12524, "city": "Berlin-Treptow-Köpenick" }, "geometry": { "type": "Point", "coordinates": [ 13.52711, 52.42472 ] } },
{ "type": "Feature", "properties": { "id": 114, "latitude": 52.39287, "longitude": 13.40692, "filiale": 3478, "address": "Lichtenrader Damm 219", "zip": 12305, "city": "Berlin-Tempelhof-Schöneberg" }, "geometry": { "type": "Point", "coordinates": [ 13.40692, 52.39287 ] } },
{ "type": "Feature", "properties": { "id": 115, "latitude": 52.53959, "longitude": 13.23316, "filiale": 3254, "address": "Nonnendammallee 175", "zip": 13599, "city": "Berlin-Spandau" }, "geometry": { "type": "Point", "coordinates": [ 13.23316, 52.53959 ] } },
{ "type": "Feature", "properties": { "id": 116, "latitude": 52.42949, "longitude": 13.25992, "filiale": 3091, "address": "Mühlenstr. 2", "zip": 14167, "city": "Berlin-Steglitz-Zehlendorf" }, "geometry": { "type": "Point", "coordinates": [ 13.25992, 52.42949 ] } },
{ "type": "Feature", "properties": { "id": 117, "latitude": 52.43104, "longitude": 13.548, "filiale": 8298, "address": "Adlergestell 291", "zip": 12489, "city": "Berlin-Treptow-Köpenick" }, "geometry": { "type": "Point", "coordinates": [ 13.548, 52.43104 ] } },
{ "type": "Feature", "properties": { "id": 118, "latitude": 52.50495, "longitude": 13.58911, "filiale": 8794, "address": "Alt-Kaulsdorf 56", "zip": 12621, "city": "Berlin-Marzahn-Hellersdorf" }, "geometry": { "type": "Point", "coordinates": [ 13.58911, 52.50495 ] } },
{ "type": "Feature", "properties": { "id": 119, "latitude": 52.54592, "longitude": 13.57574, "filiale": 3242, "address": "Prötzeler Ring 8", "zip": 12685, "city": "Berlin-Marzahn-Hellersdorf" }, "geometry": { "type": "Point", "coordinates": [ 13.57574, 52.54592 ] } },
{ "type": "Feature", "properties": { "id": 120, "latitude": 52.6076, "longitude": 13.47891, "filiale": 8761, "address": "Blankenburger Chaussee 10", "zip": 13125, "city": "Berlin-Pankow" }, "geometry": { "type": "Point", "coordinates": [ 13.47891, 52.6076 ] } },
{ "type": "Feature", "properties": { "id": 121, "latitude": 52.52799, "longitude": 13.58902, "filiale": 3226, "address": "Feldberger Ring 1", "zip": 12619, "city": "Berlin-Marzahn-Hellersdorf" }, "geometry": { "type": "Point", "coordinates": [ 13.58902, 52.52799 ] } },
{ "type": "Feature", "properties": { "id": 122, "latitude": 52.59411, "longitude": 13.28187, "filiale": 1750, "address": "Karolinenstr. 1-2", "zip": 13507, "city": "Berlin-Reinickendorf" }, "geometry": { "type": "Point", "coordinates": [ 13.28187, 52.59411 ] } },
{ "type": "Feature", "properties": { "id": 123, "latitude": 52.53726, "longitude": 13.5902, "filiale": 3161, "address": "Gothaer Str. 49", "zip": 12629, "city": "Berlin-Marzahn-Hellersdorf" }, "geometry": { "type": "Point", "coordinates": [ 13.5902, 52.53726 ] } },
{ "type": "Feature", "properties": { "id": 124, "latitude": 52.43698, "longitude": 13.57153, "filiale": 8379, "address": "Grünauer Str. 118", "zip": 12557, "city": "Berlin-Treptow-Köpenick" }, "geometry": { "type": "Point", "coordinates": [ 13.57153, 52.43698 ] } },
{ "type": "Feature", "properties": { "id": 125, "latitude": 52.56932, "longitude": 13.56949, "filiale": 3145, "address": "Havemannstr. 1", "zip": 12689, "city": "Berlin-Marzahn-Hellersdorf" }, "geometry": { "type": "Point", "coordinates": [ 13.56949, 52.56932 ] } },
{ "type": "Feature", "properties": { "id": 126, "latitude": 52.54484, "longitude": 13.59291, "filiale": 5260, "address": "Zossener Str. 121", "zip": 12629, "city": "Berlin-Marzahn-Hellersdorf" }, "geometry": { "type": "Point", "coordinates": [ 13.59291, 52.54484 ] } },
{ "type": "Feature", "properties": { "id": 127, "latitude": 52.61325, "longitude": 13.31475, "filiale": 8729, "address": "Berliner Str. 141", "zip": 13467, "city": "Berlin-Reinickendorf" }, "geometry": { "type": "Point", "coordinates": [ 13.31475, 52.61325 ] } },
{ "type": "Feature", "properties": { "id": 128, "latitude": 52.40032, "longitude": 13.52141, "filiale": 8753, "address": "Altglienicker Chaussee 13", "zip": 12529, "city": "Schönefeld" }, "geometry": { "type": "Point", "coordinates": [ 13.52141, 52.40032 ] } },
{ "type": "Feature", "properties": { "id": 129, "latitude": 52.40654, "longitude": 13.26835, "filiale": 5497, "address": "Teltower Damm 295", "zip": 14167, "city": "Berlin-Steglitz-Zehlendorf" }, "geometry": { "type": "Point", "coordinates": [ 13.26835, 52.40654 ] } },
{ "type": "Feature", "properties": { "id": 130, "latitude": 52.5477, "longitude": 13.20982, "filiale": 8372, "address": "Neuendorfer Str. 30", "zip": 13585, "city": "Berlin-Spandau" }, "geometry": { "type": "Point", "coordinates": [ 13.20982, 52.5477 ] } },
{ "type": "Feature", "properties": { "id": 131, "latitude": 52.44722, "longitude": 13.59256, "filiale": 3653, "address": "Wendenschloßstr. 9", "zip": 12559, "city": "Berlin-Treptow-Köpenick" }, "geometry": { "type": "Point", "coordinates": [ 13.59256, 52.44722 ] } },
{ "type": "Feature", "properties": { "id": 132, "latitude": 52.5335, "longitude": 13.61013, "filiale": 5108, "address": "Mark-Twain-Str. 2", "zip": 12627, "city": "Berlin-Marzahn-Hellersdorf" }, "geometry": { "type": "Point", "coordinates": [ 13.61013, 52.5335 ] } },
{ "type": "Feature", "properties": { "id": 133, "latitude": 52.54326, "longitude": 13.19768, "filiale": 1863, "address": "Falkenseer Damm 19", "zip": 13585, "city": "Berlin-Spandau" }, "geometry": { "type": "Point", "coordinates": [ 13.19768, 52.54326 ] } },
{ "type": "Feature", "properties": { "id": 134, "latitude": 52.52796, "longitude": 13.18865, "filiale": 8345, "address": "Seeburger Str. 18", "zip": 13581, "city": "Berlin-Spandau" }, "geometry": { "type": "Point", "coordinates": [ 13.18865, 52.52796 ] } },
{ "type": "Feature", "properties": { "id": 135, "latitude": 52.51792, "longitude": 13.18465, "filiale": 8783, "address": "Am Omnibushof 13", "zip": 13593, "city": "Berlin-Spandau" }, "geometry": { "type": "Point", "coordinates": [ 13.18465, 52.51792 ] } },
{ "type": "Feature", "properties": { "id": 136, "latitude": 52.41304, "longitude": 13.57118, "filiale": 5537, "address": "Bruno-Taut-Str. 4", "zip": 12524, "city": "Berlin-Treptow-Köpenick" }, "geometry": { "type": "Point", "coordinates": [ 13.57118, 52.41304 ] } },
{ "type": "Feature", "properties": { "id": 137, "latitude": 52.39985, "longitude": 13.25219, "filiale": 8758, "address": "Elbestr. 1", "zip": 14513, "city": "Teltow" }, "geometry": { "type": "Point", "coordinates": [ 13.25219, 52.39985 ] } },
{ "type": "Feature", "properties": { "id": 138, "latitude": 52.41534, "longitude": 13.22419, "filiale": 1626, "address": "Karl-Marx-Str. 38-42", "zip": 14532, "city": "Kleinmachnow" }, "geometry": { "type": "Point", "coordinates": [ 13.22419, 52.41534 ] } },
{ "type": "Feature", "properties": { "id": 139, "latitude": 52.4556, "longitude": 13.61837, "filiale": 3162, "address": "Fürstenwalder Damm 425", "zip": 12587, "city": "Berlin-Treptow-Köpenick" }, "geometry": { "type": "Point", "coordinates": [ 13.61837, 52.4556 ] } },
{ "type": "Feature", "properties": { "id": 140, "latitude": 52.35325, "longitude": 13.40727, "filiale": 1056, "address": "Berliner Damm 159-161", "zip": 15831, "city": "Mahlow" }, "geometry": { "type": "Point", "coordinates": [ 13.40727, 52.35325 ] } },
{ "type": "Feature", "properties": { "id": 141, "latitude": 52.54072, "longitude": 13.63786, "filiale": 1939, "address": "Mahlsdorfer Str. 82", "zip": 15366, "city": "Hönow" }, "geometry": { "type": "Point", "coordinates": [ 13.63786, 52.54072 ] } },
{ "type": "Feature", "properties": { "id": 142, "latitude": 52.39317, "longitude": 13.21015, "filiale": 3441, "address": "Wannseestr. 17", "zip": 14532, "city": "Stahnsdorf" }, "geometry": { "type": "Point", "coordinates": [ 13.21015, 52.39317 ] } },
{ "type": "Feature", "properties": { "id": 143, "latitude": 52.62492, "longitude": 13.22991, "filiale": 5923, "address": "Ruppiner Chaussee 401", "zip": 13503, "city": "Berlin-Reinickendorf" }, "geometry": { "type": "Point", "coordinates": [ 13.22991, 52.62492 ] } },
{ "type": "Feature", "properties": { "id": 144, "latitude": 52.45536, "longitude": 13.14589, "filiale": 3181, "address": "Kladower Damm 363-365", "zip": 14089, "city": "Berlin-Spandau" }, "geometry": { "type": "Point", "coordinates": [ 13.14589, 52.45536 ] } },
{ "type": "Feature", "properties": { "id": 145, "latitude": 52.54642, "longitude": 13.14319, "filiale": 8363, "address": "Seegefelder Weg 391", "zip": 13591, "city": "Berlin-Spandau" }, "geometry": { "type": "Point", "coordinates": [ 13.14319, 52.54642 ] } },
{ "type": "Feature", "properties": { "id": 146, "latitude": 52.52729, "longitude": 13.12939, "filiale": 3705, "address": "Heerstr. 640", "zip": 13591, "city": "Berlin-Spandau" }, "geometry": { "type": "Point", "coordinates": [ 13.12939, 52.52729 ] } },
{ "type": "Feature", "properties": { "id": 147, "latitude": 52.65088, "longitude": 13.54142, "filiale": 1370, "address": "Birkholzer Str. 1", "zip": 16341, "city": "Zepernick" }, "geometry": { "type": "Point", "coordinates": [ 13.54142, 52.65088 ] } },
{ "type": "Feature", "properties": { "id": 148, "latitude": 52.68581, "longitude": 13.44133, "filiale": 5118, "address": "Hauptstr. 63", "zip": 16348, "city": "Wandlitz" }, "geometry": { "type": "Point", "coordinates": [ 13.44133, 52.68581 ] } },
{ "type": "Feature", "properties": { "id": 149, "latitude": 52.3671, "longitude": 13.61919, "filiale": 8735, "address": "August-Bebel-Allee 38-44", "zip": 15732, "city": "Eichwalde" }, "geometry": { "type": "Point", "coordinates": [ 13.61919, 52.3671 ] } },
{ "type": "Feature", "properties": { "id": 150, "latitude": 52.67517, "longitude": 13.28125, "filiale": 2308, "address": "Oranienburger Straße 3", "zip": 16540, "city": "Hohen Neuendorf" }, "geometry": { "type": "Point", "coordinates": [ 13.28125, 52.67517 ] } },
{ "type": "Feature", "properties": { "id": 151, "latitude": 52.64188, "longitude": 13.19317, "filiale": 8712, "address": "Rosa-Luxemburg-Platz 2", "zip": 16761, "city": "Hennigsdorf" }, "geometry": { "type": "Point", "coordinates": [ 13.19317, 52.64188 ] } },
{ "type": "Feature", "properties": { "id": 152, "latitude": 52.66944, "longitude": 13.58202, "filiale": 8778, "address": "Schwanebecker Chaussee 84", "zip": 16321, "city": "Bernau" }, "geometry": { "type": "Point", "coordinates": [ 13.58202, 52.66944 ] } },
{ "type": "Feature", "properties": { "id": 153, "latitude": 52.57197, "longitude": 13.0887, "filiale": 3758, "address": "Falkenhagener Str. 86", "zip": 14612, "city": "Falkensee" }, "geometry": { "type": "Point", "coordinates": [ 13.0887, 52.57197 ] } },
{ "type": "Feature", "properties": { "id": 154, "latitude": 52.38037, "longitude": 13.13074, "filiale": 8348, "address": "Großbeerenstr. 265", "zip": 14480, "city": "Potsdam" }, "geometry": { "type": "Point", "coordinates": [ 13.13074, 52.38037 ] } },
{ "type": "Feature", "properties": { "id": 155, "latitude": 52.69388, "longitude": 13.27647, "filiale": 3975, "address": "Hauptstr. 100", "zip": 16547, "city": "Birkenwerder" }, "geometry": { "type": "Point", "coordinates": [ 13.27647, 52.69388 ] } },
{ "type": "Feature", "properties": { "id": 156, "latitude": 52.54264, "longitude": 13.06387, "filiale": 3417, "address": "Wilmsstr. 57", "zip": 14624, "city": "Dallgow-Döberitz" }, "geometry": { "type": "Point", "coordinates": [ 13.06387, 52.54264 ] } },
{ "type": "Feature", "properties": { "id": 157, "latitude": 52.51458, "longitude": 13.7469, "filiale": 3332, "address": "Ernst-Thälmann-Str. 28 C", "zip": 15370, "city": "Fredersdorf" }, "geometry": { "type": "Point", "coordinates": [ 13.7469, 52.51458 ] } },
{ "type": "Feature", "properties": { "id": 158, "latitude": 52.36647, "longitude": 13.12983, "filiale": 8396, "address": "Zum Kirchsteigfeld 12", "zip": 14480, "city": "Potsdam" }, "geometry": { "type": "Point", "coordinates": [ 13.12983, 52.36647 ] } },
{ "type": "Feature", "properties": { "id": 159, "latitude": 52.40769, "longitude": 13.07511, "filiale": 1522, "address": "Berliner Str. 121", "zip": 14467, "city": "Potsdam" }, "geometry": { "type": "Point", "coordinates": [ 13.07511, 52.40769 ] } },
{ "type": "Feature", "properties": { "id": 160, "latitude": 52.29732, "longitude": 13.26612, "filiale": 1619, "address": "Am Bahnhof 2a", "zip": 14974, "city": "Ludwigsfelde" }, "geometry": { "type": "Point", "coordinates": [ 13.26612, 52.29732 ] } },
{ "type": "Feature", "properties": { "id": 161, "latitude": 52.44913, "longitude": 13.75393, "filiale": 5183, "address": "August-Bebel-Str. 4-5", "zip": 15569, "city": "Woltersdorf" }, "geometry": { "type": "Point", "coordinates": [ 13.75393, 52.44913 ] } },
{ "type": "Feature", "properties": { "id": 162, "latitude": 52.32278, "longitude": 13.61523, "filiale": 5373, "address": "Dorfaue 33", "zip": 15745, "city": "Wildau" }, "geometry": { "type": "Point", "coordinates": [ 13.61523, 52.32278 ] } },
{ "type": "Feature", "properties": { "id": 163, "latitude": 52.37862, "longitude": 13.08485, "filiale": 1309, "address": "Horstweg 96", "zip": 14478, "city": "Potsdam" }, "geometry": { "type": "Point", "coordinates": [ 13.08485, 52.37862 ] } },
{ "type": "Feature", "properties": { "id": 164, "latitude": 52.68728, "longitude": 13.18134, "filiale": 3231, "address": "Poststr. 20", "zip": 16727, "city": "Velten" }, "geometry": { "type": "Point", "coordinates": [ 13.18134, 52.68728 ] } },
{ "type": "Feature", "properties": { "id": 165, "latitude": 52.41646, "longitude": 13.75566, "filiale": 5163, "address": "Hohenbinder Weg 2", "zip": 15537, "city": "Erkner" }, "geometry": { "type": "Point", "coordinates": [ 13.75566, 52.41646 ] } },
{ "type": "Feature", "properties": { "id": 166, "latitude": 52.63011, "longitude": 13.73742, "filiale": 1729, "address": "Freienwalder Str. 33", "zip": 16356, "city": "Werneuchen" }, "geometry": { "type": "Point", "coordinates": [ 13.73742, 52.63011 ] } },
{ "type": "Feature", "properties": { "id": 167, "latitude": 52.74632, "longitude": 13.46454, "filiale": 8664, "address": "Bernauer Chaussee 70", "zip": 16348, "city": "Wandlitz" }, "geometry": { "type": "Point", "coordinates": [ 13.46454, 52.74632 ] } },
{ "type": "Feature", "properties": { "id": 168, "latitude": 52.41797, "longitude": 13.01746, "filiale": 8741, "address": "Potsdamer Str. 39-42", "zip": 14469, "city": "Potsdam" }, "geometry": { "type": "Point", "coordinates": [ 13.01746, 52.41797 ] } },
{ "type": "Feature", "properties": { "id": 169, "latitude": 52.28801, "longitude": 13.6163, "filiale": 3237, "address": "Luckenwalder Str. 68", "zip": 15711, "city": "Königs Wusterhausen" }, "geometry": { "type": "Point", "coordinates": [ 13.6163, 52.28801 ] } },
{ "type": "Feature", "properties": { "id": 170, "latitude": 52.39022, "longitude": 13.03066, "filiale": 1770, "address": "Zeppelinstr. 56", "zip": 14471, "city": "Potsdam" }, "geometry": { "type": "Point", "coordinates": [ 13.03066, 52.39022 ] } },
{ "type": "Feature", "properties": { "id": 171, "latitude": 52.72386, "longitude": 13.18895, "filiale": 1094, "address": "Eichenallee 41", "zip": 16767, "city": "Leegebruch" }, "geometry": { "type": "Point", "coordinates": [ 13.18895, 52.72386 ] } },
{ "type": "Feature", "properties": { "id": 172, "latitude": 52.57633, "longitude": 12.99681, "filiale": 1909, "address": "Wustermarker Allee 16", "zip": 14656, "city": "Brieselang" }, "geometry": { "type": "Point", "coordinates": [ 12.99681, 52.57633 ] } },
{ "type": "Feature", "properties": { "id": 173, "latitude": 52.74822, "longitude": 13.2371, "filiale": 1572, "address": "Berliner Str. 49", "zip": 16515, "city": "Oranienburg" }, "geometry": { "type": "Point", "coordinates": [ 13.2371, 52.74822 ] } },
{ "type": "Feature", "properties": { "id": 174, "latitude": 52.7536, "longitude": 13.25565, "filiale": 5082, "address": "Wiesbadener Str. 1", "zip": 16515, "city": "Oranienburg" }, "geometry": { "type": "Point", "coordinates": [ 13.25565, 52.7536 ] } },
{ "type": "Feature", "properties": { "id": 175, "latitude": 52.22547, "longitude": 13.44316, "filiale": 2343, "address": "Stubenrauchstr. 25a", "zip": 15806, "city": "Zossen" }, "geometry": { "type": "Point", "coordinates": [ 13.44316, 52.22547 ] } },
{ "type": "Feature", "properties": { "id": 176, "latitude": 52.56888, "longitude": 13.8717, "filiale": 3029, "address": "Berliner Str. 93-94", "zip": 15344, "city": "Strausberg" }, "geometry": { "type": "Point", "coordinates": [ 13.8717, 52.56888 ] } },
{ "type": "Feature", "properties": { "id": 177, "latitude": 52.22125, "longitude": 13.21802, "filiale": 5439, "address": "Berliner Tor 3", "zip": 14959, "city": "Trebbin" }, "geometry": { "type": "Point", "coordinates": [ 13.21802, 52.22125 ] } },
{ "type": "Feature", "properties": { "id": 178, "latitude": 52.76539, "longitude": 13.64488, "filiale": 3817, "address": "Bahnhofstr. 152a", "zip": 16359, "city": "Biesenthal" }, "geometry": { "type": "Point", "coordinates": [ 13.64488, 52.76539 ] } },
{ "type": "Feature", "properties": { "id": 179, "latitude": 52.37068, "longitude": 12.91958, "filiale": 1323, "address": "Berliner Str. 88", "zip": 14542, "city": "Werder" }, "geometry": { "type": "Point", "coordinates": [ 12.91958, 52.37068 ] } },
{ "type": "Feature", "properties": { "id": 180, "latitude": 52.60289, "longitude": 12.87988, "filiale": 3699, "address": "Berliner Str. 38+40+42", "zip": 14641, "city": "Nauen" }, "geometry": { "type": "Point", "coordinates": [ 12.87988, 52.60289 ] } },
{ "type": "Feature", "properties": { "id": 181, "latitude": 52.48191, "longitude": 12.8461, "filiale": 5312, "address": "Nauener Str. 9", "zip": 14669, "city": "Ketzin" }, "geometry": { "type": "Point", "coordinates": [ 12.8461, 52.48191 ] } },
{ "type": "Feature", "properties": { "id": 182, "latitude": 52.76455, "longitude": 13.02707, "filiale": 8707, "address": "Ruppiner Str. 57", "zip": 16766, "city": "Kremmen" }, "geometry": { "type": "Point", "coordinates": [ 13.02707, 52.76455 ] } },
{ "type": "Feature", "properties": { "id": 183, "latitude": 52.8731, "longitude": 13.40408, "filiale": 2315, "address": "Hammerallee 5", "zip": 16559, "city": "Liebenwalde" }, "geometry": { "type": "Point", "coordinates": [ 13.40408, 52.8731 ] } },
{ "type": "Feature", "properties": { "id": 184, "latitude": 52.2372, "longitude": 12.96899, "filiale": 3978, "address": "Clara-Zetkin-Str. 37a", "zip": 14547, "city": "Beelitz" }, "geometry": { "type": "Point", "coordinates": [ 12.96899, 52.2372 ] } },
{ "type": "Feature", "properties": { "id": 185, "latitude": 52.84265, "longitude": 13.69549, "filiale": 8666, "address": "Schloßgutsiedlung 1", "zip": 16244, "city": "Finowfurt" }, "geometry": { "type": "Point", "coordinates": [ 13.69549, 52.84265 ] } },
{ "type": "Feature", "properties": { "id": 186, "latitude": 52.25401, "longitude": 13.9321, "filiale": 5542, "address": "Schloßstr. 5", "zip": 15859, "city": "Storkow" }, "geometry": { "type": "Point", "coordinates": [ 13.9321, 52.25401 ] } },
{ "type": "Feature", "properties": { "id": 187, "latitude": 52.83496, "longitude": 13.79578, "filiale": 978, "address": "Heegermühler Str. 1", "zip": 16225, "city": "Eberswalde" }, "geometry": { "type": "Point", "coordinates": [ 13.79578, 52.83496 ] } },
{ "type": "Feature", "properties": { "id": 188, "latitude": 52.82945, "longitude": 13.83049, "filiale": 8796, "address": "Freienwalder Str. 30a", "zip": 16225, "city": "Eberswalde" }, "geometry": { "type": "Point", "coordinates": [ 13.83049, 52.82945 ] } },
{ "type": "Feature", "properties": { "id": 189, "latitude": 52.09804, "longitude": 13.17974, "filiale": 1327, "address": "Schützenstr. 46", "zip": 14943, "city": "Luckenwalde" }, "geometry": { "type": "Point", "coordinates": [ 13.17974, 52.09804 ] } },
{ "type": "Feature", "properties": { "id": 190, "latitude": 52.31879, "longitude": 12.74595, "filiale": 5043, "address": "Emstaler Landstr. 40", "zip": 14797, "city": "Kloster-Lehnin" }, "geometry": { "type": "Point", "coordinates": [ 12.74595, 52.31879 ] } },
{ "type": "Feature", "properties": { "id": 191, "latitude": 52.33962, "longitude": 14.07409, "filiale": 3392, "address": "August-Bebel-Str. 65a", "zip": 15517, "city": "Fürstenwalde" }, "geometry": { "type": "Point", "coordinates": [ 14.07409, 52.33962 ] } },
{ "type": "Feature", "properties": { "id": 192, "latitude": 52.50158, "longitude": 14.14621, "filiale": 3500, "address": "Ernst-Thälmann-Str. 22", "zip": 15374, "city": "Müncheberg" }, "geometry": { "type": "Point", "coordinates": [ 14.14621, 52.50158 ] } },
{ "type": "Feature", "properties": { "id": 193, "latitude": 52.97705, "longitude": 13.32838, "filiale": 5078, "address": "Bahnhofstr. 45", "zip": 16792, "city": "Zehdenick" }, "geometry": { "type": "Point", "coordinates": [ 13.32838, 52.97705 ] } },
{ "type": "Feature", "properties": { "id": 194, "latitude": 52.7717, "longitude": 14.06844, "filiale": 2333, "address": "Altranfter Str. 4-8", "zip": 16259, "city": "Bad Freienwalde" }, "geometry": { "type": "Point", "coordinates": [ 14.06844, 52.7717 ] } },
{ "type": "Feature", "properties": { "id": 195, "latitude": 52.80934, "longitude": 12.7769, "filiale": 5580, "address": "Berliner Allee 30c", "zip": 16833, "city": "Fehrbellin" }, "geometry": { "type": "Point", "coordinates": [ 12.7769, 52.80934 ] } },
{ "type": "Feature", "properties": { "id": 196, "latitude": 52.71263, "longitude": 14.13241, "filiale": 5403, "address": "Frankfurter Str. 11", "zip": 16269, "city": "Wriezen" }, "geometry": { "type": "Point", "coordinates": [ 14.13241, 52.71263 ] } },
{ "type": "Feature", "properties": { "id": 197, "latitude": 52.40565, "longitude": 12.57114, "filiale": 1443, "address": "Potsdamer Str. 23", "zip": 14776, "city": "Brandenburg an der Havel" }, "geometry": { "type": "Point", "coordinates": [ 12.57114, 52.40565 ] } },
{ "type": "Feature", "properties": { "id": 198, "latitude": 52.43061, "longitude": 12.53394, "filiale": 8674, "address": "Upstallstr. 22", "zip": 14772, "city": "Brandenburg an der Havel" }, "geometry": { "type": "Point", "coordinates": [ 12.53394, 52.43061 ] } },
{ "type": "Feature", "properties": { "id": 199, "latitude": 52.41375, "longitude": 12.52375, "filiale": 8725, "address": "Friedrich-Franz-Str. 4", "zip": 14770, "city": "Brandenburg an der Havel" }, "geometry": { "type": "Point", "coordinates": [ 12.52375, 52.41375 ] } },
{ "type": "Feature", "properties": { "id": 200, "latitude": 51.99007, "longitude": 13.08916, "filiale": 1509, "address": "Vorstadt Neumarkt 5-7", "zip": 14913, "city": "Jüterbog" }, "geometry": { "type": "Point", "coordinates": [ 13.08916, 51.99007 ] } },
{ "type": "Feature", "properties": { "id": 201, "latitude": 52.94542, "longitude": 12.84974, "filiale": 3916, "address": "Wulkower Chaussee 5", "zip": 16827, "city": "Alt Ruppin" }, "geometry": { "type": "Point", "coordinates": [ 12.84974, 52.94542 ] } },
{ "type": "Feature", "properties": { "id": 202, "latitude": 52.9219, "longitude": 12.79435, "filiale": 8734, "address": "Neustädter Str. 53", "zip": 16816, "city": "Neuruppin" }, "geometry": { "type": "Point", "coordinates": [ 12.79435, 52.9219 ] } },
{ "type": "Feature", "properties": { "id": 203, "latitude": 52.53083, "longitude": 14.37129, "filiale": 5415, "address": "Diedersdorfer Str. 1", "zip": 15306, "city": "Seelow" }, "geometry": { "type": "Point", "coordinates": [ 14.37129, 52.53083 ] } },
{ "type": "Feature", "properties": { "id": 204, "latitude": 52.14421, "longitude": 12.6087, "filiale": 1915, "address": "Brücker Landstr. 5", "zip": 14806, "city": "Belzig" }, "geometry": { "type": "Point", "coordinates": [ 12.6087, 52.14421 ] } },
{ "type": "Feature", "properties": { "id": 205, "latitude": 52.18259, "longitude": 14.24299, "filiale": 5305, "address": "Fürstenwalder Str. 9", "zip": 15848, "city": "Beeskow" }, "geometry": { "type": "Point", "coordinates": [ 14.24299, 52.18259 ] } },
{ "type": "Feature", "properties": { "id": 206, "latitude": 53.11695, "longitude": 13.5007, "filiale": 1878, "address": "Prokopiusstr. 6", "zip": 17268, "city": "Templin" }, "geometry": { "type": "Point", "coordinates": [ 13.5007, 53.11695 ] } },
{ "type": "Feature", "properties": { "id": 207, "latitude": 51.94772, "longitude": 13.87722, "filiale": 3588, "address": "Berliner Chaussee 23", "zip": 15907, "city": "Lübben" }, "geometry": { "type": "Point", "coordinates": [ 13.87722, 51.94772 ] } },
{ "type": "Feature", "properties": { "id": 208, "latitude": 51.86998, "longitude": 13.42449, "filiale": 5227, "address": "Hauptstr. 67", "zip": 15936, "city": "Dahme" }, "geometry": { "type": "Point", "coordinates": [ 13.42449, 51.86998 ] } },
{ "type": "Feature", "properties": { "id": 209, "latitude": 53.01659, "longitude": 14.01599, "filiale": 3940, "address": "Schwedter Str. 36", "zip": 16278, "city": "Angermünde" }, "geometry": { "type": "Point", "coordinates": [ 14.01599, 53.01659 ] } },
{ "type": "Feature", "properties": { "id": 210, "latitude": 52.60402, "longitude": 12.36022, "filiale": 3216, "address": "Bruno-Baum Ring 11", "zip": 14712, "city": "Rathenow" }, "geometry": { "type": "Point", "coordinates": [ 12.36022, 52.60402 ] } },
{ "type": "Feature", "properties": { "id": 211, "latitude": 52.53133, "longitude": 12.33801, "filiale": 1622, "address": "Ernst-Thälmann-Str. 2", "zip": 14727, "city": "Premnitz" }, "geometry": { "type": "Point", "coordinates": [ 12.33801, 52.53133 ] } },
{ "type": "Feature", "properties": { "id": 212, "latitude": 53.09397, "longitude": 12.89965, "filiale": 1733, "address": "Berliner Str. 41", "zip": 16831, "city": "Rheinsberg" }, "geometry": { "type": "Point", "coordinates": [ 12.89965, 53.09397 ] } },
{ "type": "Feature", "properties": { "id": 213, "latitude": 51.85125, "longitude": 13.71068, "filiale": 5453, "address": "Südpromenade 6", "zip": 15926, "city": "Luckau" }, "geometry": { "type": "Point", "coordinates": [ 13.71068, 51.85125 ] } },
{ "type": "Feature", "properties": { "id": 214, "latitude": 52.85754, "longitude": 12.4392, "filiale": 5106, "address": "Ihlenweg 2", "zip": 16845, "city": "Neustadt (Dosse)" }, "geometry": { "type": "Point", "coordinates": [ 12.4392, 52.85754 ] } },
{ "type": "Feature", "properties": { "id": 215, "latitude": 52.3488, "longitude": 14.51455, "filiale": 5510, "address": "Rathenaustr. 4", "zip": 15234, "city": "Frankfurt\/Oder" }, "geometry": { "type": "Point", "coordinates": [ 14.51455, 52.3488 ] } },
{ "type": "Feature", "properties": { "id": 216, "latitude": 52.33449, "longitude": 14.52802, "filiale": 3075, "address": "Weinbergweg 36", "zip": 15232, "city": "Frankfurt\/Oder" }, "geometry": { "type": "Point", "coordinates": [ 14.52802, 52.33449 ] } },
{ "type": "Feature", "properties": { "id": 217, "latitude": 51.86005, "longitude": 13.94116, "filiale": 1949, "address": "Otto-Grotewohl-Str. 19", "zip": 3222, "city": "Lübbenau" }, "geometry": { "type": "Point", "coordinates": [ 13.94116, 51.86005 ] } },
{ "type": "Feature", "properties": { "id": 218, "latitude": 51.79485, "longitude": 12.96929, "filiale": 5321, "address": "Rosa-Luxemburg-Str. 70", "zip": 6917, "city": "Jessen" }, "geometry": { "type": "Point", "coordinates": [ 12.96929, 51.79485 ] } },
{ "type": "Feature", "properties": { "id": 219, "latitude": 52.4091, "longitude": 12.15723, "filiale": 8673, "address": "Geschw.-Scholl-Str. 5", "zip": 39307, "city": "Genthin" }, "geometry": { "type": "Point", "coordinates": [ 12.15723, 52.4091 ] } },
{ "type": "Feature", "properties": { "id": 220, "latitude": 52.95147, "longitude": 12.3792, "filiale": 2363, "address": "Perleberger Str. 55", "zip": 16866, "city": "Kyritz" }, "geometry": { "type": "Point", "coordinates": [ 12.3792, 52.95147 ] } },
{ "type": "Feature", "properties": { "id": 221, "latitude": 53.06763, "longitude": 14.26267, "filiale": 8714, "address": "Bäckerstr. 1a", "zip": 16303, "city": "Schwedt\/Oder" }, "geometry": { "type": "Point", "coordinates": [ 14.26267, 53.06763 ] } },
{ "type": "Feature", "properties": { "id": 222, "latitude": 51.88049, "longitude": 12.65381, "filiale": 5675, "address": "Berliner Chaussee 13", "zip": 6886, "city": "Wittenberg" }, "geometry": { "type": "Point", "coordinates": [ 12.65381, 51.88049 ] } },
{ "type": "Feature", "properties": { "id": 223, "latitude": 53.06131, "longitude": 14.29576, "filiale": 5444, "address": "Berliner Str. 60f", "zip": 16303, "city": "Schwedt" }, "geometry": { "type": "Point", "coordinates": [ 14.29576, 53.06131 ] } },
{ "type": "Feature", "properties": { "id": 224, "latitude": 51.86585, "longitude": 12.62701, "filiale": 8979, "address": "Dessauer Str. 279", "zip": 6886, "city": "Wittenberg" }, "geometry": { "type": "Point", "coordinates": [ 12.62701, 51.86585 ] } },
{ "type": "Feature", "properties": { "id": 225, "latitude": 51.69667, "longitude": 13.24965, "filiale": 5146, "address": "Berliner Str. 1", "zip": 4916, "city": "Herzberg" }, "geometry": { "type": "Point", "coordinates": [ 13.24965, 51.69667 ] } },
{ "type": "Feature", "properties": { "id": 226, "latitude": 51.74892, "longitude": 13.95412, "filiale": 1687, "address": "Gewerbepark Nord 1", "zip": 3205, "city": "Calau" }, "geometry": { "type": "Point", "coordinates": [ 13.95412, 51.74892 ] } },
{ "type": "Feature", "properties": { "id": 227, "latitude": 53.32999, "longitude": 13.43494, "filiale": 1821, "address": "Luzinweg 4", "zip": 17258, "city": "Feldberg" }, "geometry": { "type": "Point", "coordinates": [ 13.43494, 53.32999 ] } },
{ "type": "Feature", "properties": { "id": 228, "latitude": 52.14701, "longitude": 14.63679, "filiale": 3725, "address": "Karl-Marx-Str. 35", "zip": 15890, "city": "Eisenhüttenstadt" }, "geometry": { "type": "Point", "coordinates": [ 14.63679, 52.14701 ] } },
{ "type": "Feature", "properties": { "id": 229, "latitude": 53.32132, "longitude": 13.86489, "filiale": 1987, "address": "Stettiner Str. 47", "zip": 17291, "city": "Prenzlau" }, "geometry": { "type": "Point", "coordinates": [ 13.86489, 53.32132 ] } },
{ "type": "Feature", "properties": { "id": 230, "latitude": 53.15988, "longitude": 12.46875, "filiale": 8669, "address": "Perleberger Str. 42", "zip": 16909, "city": "Wittstock" }, "geometry": { "type": "Point", "coordinates": [ 12.46875, 53.15988 ] } },
{ "type": "Feature", "properties": { "id": 231, "latitude": 52.54756, "longitude": 11.97914, "filiale": 1881, "address": "Arneburger Str. 116", "zip": 39590, "city": "Tangermünde" }, "geometry": { "type": "Point", "coordinates": [ 11.97914, 52.54756 ] } },
{ "type": "Feature", "properties": { "id": 232, "latitude": 53.36263, "longitude": 13.06504, "filiale": 5048, "address": "Strelitzer Str. 2-4", "zip": 17235, "city": "Neustrelitz" }, "geometry": { "type": "Point", "coordinates": [ 13.06504, 53.36263 ] } },
{ "type": "Feature", "properties": { "id": 233, "latitude": 51.61864, "longitude": 13.56045, "filiale": 3657, "address": "Bahnhofsallee 10", "zip": 3253, "city": "Doberlug" }, "geometry": { "type": "Point", "coordinates": [ 13.56045, 51.61864 ] } },
{ "type": "Feature", "properties": { "id": 234, "latitude": 51.62982, "longitude": 13.71236, "filiale": 999, "address": "Langer Damm 6", "zip": 3238, "city": "Finsterwalde" }, "geometry": { "type": "Point", "coordinates": [ 13.71236, 51.62982 ] } },
{ "type": "Feature", "properties": { "id": 235, "latitude": 51.85248, "longitude": 14.40633, "filiale": 3878, "address": "Cottbuser Str. 7 A", "zip": 3185, "city": "Peitz" }, "geometry": { "type": "Point", "coordinates": [ 14.40633, 51.85248 ] } },
{ "type": "Feature", "properties": { "id": 236, "latitude": 51.77262, "longitude": 14.32686, "filiale": 1745, "address": "Sielower Landstr. 21", "zip": 3044, "city": "Cottbus" }, "geometry": { "type": "Point", "coordinates": [ 14.32686, 51.77262 ] } },
{ "type": "Feature", "properties": { "id": 237, "latitude": 51.75586, "longitude": 14.31146, "filiale": 2062, "address": "Karl-Liebknecht-Str. 47a", "zip": 3046, "city": "Cottbus" }, "geometry": { "type": "Point", "coordinates": [ 14.31146, 51.75586 ] } },
{ "type": "Feature", "properties": { "id": 238, "latitude": 51.76262, "longitude": 14.35293, "filiale": 1879, "address": "Dissenchener Str. 16", "zip": 3042, "city": "Cottbus" }, "geometry": { "type": "Point", "coordinates": [ 14.35293, 51.76262 ] } },
{ "type": "Feature", "properties": { "id": 239, "latitude": 52.61357, "longitude": 11.86464, "filiale": 3839, "address": "Arneburger Str. 20", "zip": 39576, "city": "Stendal" }, "geometry": { "type": "Point", "coordinates": [ 11.86464, 52.61357 ] } },
{ "type": "Feature", "properties": { "id": 240, "latitude": 52.59759, "longitude": 11.83906, "filiale": 3820, "address": "Erich-Weinert-Str. 23", "zip": 39576, "city": "Stendal" }, "geometry": { "type": "Point", "coordinates": [ 11.83906, 52.59759 ] } },
{ "type": "Feature", "properties": { "id": 241, "latitude": 51.96422, "longitude": 12.09786, "filiale": 2378, "address": "Lusoer Str. 42", "zip": 39261, "city": "Zerbst" }, "geometry": { "type": "Point", "coordinates": [ 12.09786, 51.96422 ] } },
{ "type": "Feature", "properties": { "id": 242, "latitude": 51.7259, "longitude": 14.33731, "filiale": 1651, "address": "Uhlandstr. 12", "zip": 3050, "city": "Cottbus" }, "geometry": { "type": "Point", "coordinates": [ 14.33731, 51.7259 ] } },
{ "type": "Feature", "properties": { "id": 243, "latitude": 51.7286, "longitude": 12.45629, "filiale": 5242, "address": "Bahnhofstr. 2", "zip": 6773, "city": "Gräfenhainichen" }, "geometry": { "type": "Point", "coordinates": [ 12.45629, 51.7286 ] } },
{ "type": "Feature", "properties": { "id": 244, "latitude": 51.94852, "longitude": 14.70137, "filiale": 3381, "address": "Sprucker Str. 36", "zip": 3172, "city": "Guben" }, "geometry": { "type": "Point", "coordinates": [ 14.70137, 51.94852 ] } },
{ "type": "Feature", "properties": { "id": 245, "latitude": 52.43536, "longitude": 11.8047, "filiale": 8111, "address": "Schönwalder Str. 5\/7", "zip": 39517, "city": "Tangerhütte" }, "geometry": { "type": "Point", "coordinates": [ 11.8047, 52.43536 ] } },
{ "type": "Feature", "properties": { "id": 246, "latitude": 51.55901, "longitude": 12.99022, "filiale": 5035, "address": "Warschauer Str. 9b", "zip": 4860, "city": "Torgau" }, "geometry": { "type": "Point", "coordinates": [ 12.99022, 51.55901 ] } },
{ "type": "Feature", "properties": { "id": 247, "latitude": 52.26519, "longitude": 11.84699, "filiale": 1421, "address": "Magdeburger Ch.41", "zip": 39288, "city": "Burg" }, "geometry": { "type": "Point", "coordinates": [ 11.84699, 52.26519 ] } },
{ "type": "Feature", "properties": { "id": 248, "latitude": 51.82876, "longitude": 12.23412, "filiale": 1889, "address": "Askanische Str. 115", "zip": 6846, "city": "Dessau" }, "geometry": { "type": "Point", "coordinates": [ 12.23412, 51.82876 ] } },
{ "type": "Feature", "properties": { "id": 249, "latitude": 51.51545, "longitude": 13.41249, "filiale": 5592, "address": "Dresdner Str. 29", "zip": 4924, "city": "Bad Liebenwerda" }, "geometry": { "type": "Point", "coordinates": [ 13.41249, 51.51545 ] } },
{ "type": "Feature", "properties": { "id": 250, "latitude": 51.58604, "longitude": 14.00195, "filiale": 5366, "address": "Freienhufener Str. 21a", "zip": 1983, "city": "Großräschen" }, "geometry": { "type": "Point", "coordinates": [ 14.00195, 51.58604 ] } }
]
}
